satname,norad_id,inclination_deg,eccentricity,mean_motion_rev_per_day,perigee_km,apogee_km,l1,l2
STARLINK-1484,45756,53.013,0.000348,15.66582897,366.34230847460003,371.03810020882247,1 45756U 20038AC  25331.10781609  .00091216  00000+0  85123-3 0  9996,2 45756  53.0130 211.8022 0003480 116.1875 243.9498 15.66582897302484
STARLINK-1493,45759,53.056,0.0001502,15.06393061,546.1926345077918,548.2730156032376,1 45759U 20038AF  25331.28099623 -.00000569  00000+0 -19334-4 0  9991,2 45759  53.0560 316.3456 0001502  83.8889 276.2271 15.06393061301039
STARLINK-1494,45760,53.0545,0.0005353,15.53856667,401.8469257995657,409.1094642273465,1 45760U 20038AG  25331.18603152  .00030538  00000+0  47178-3 0  9993,2 45760  53.0545 293.1369 0005353  87.5994 272.5628 15.53856667301364
STARLINK-1502,45764,53.0555,0.0002024,15.06397077,545.8188241654289,548.6222088881195,1 45764U 20038AL  25331.18147402  .00001523  00000+0  12116-3 0  9994,2 45764  53.0555 316.7942 0002024  73.9948 286.1264 15.06397077301032
STARLINK-1470,45772,53.0481,0.0005914,15.19900265,502.07039648170667,510.21312139778,1 45772U 20038AU  25331.28206387  .00047559  00000+0  21867-2 0  9993,2 45772  53.0481 286.4959 0005914  25.0732 335.0549 15.19900265301460
STARLINK-1482,45773,53.0559,0.000212,15.06385532,545.7877173344714,548.7240839243395,1 45773U 20038AV  25331.27915212 -.00003994  00000+0 -24945-3 0  9995,2 45773  53.0559 296.3561 0002120  89.1876 270.9356 15.06385532301320
STARLINK-1496,45780,53.0541,0.000118,15.06392094,546.4185948065024,548.0529827846576,1 45780U 20038BC  25331.17963077  .00001214  00000+0  10040-3 0  9996,2 45780  53.0541 296.8032 0001180  98.6121 261.5002 15.06392094301291
STARLINK-1497,45781,53.0354,0.000719,15.62478929,375.6396108041363,385.35852947299463,1 45781U 20038BD  25331.33336806  .00141721  00000+0  15416-2 0  9998,2 45781  53.0354 231.5736 0007190  70.0252  56.2306 15.62478929  5793
STARLINK-1510,45784,53.0256,0.0004288,15.81946653,322.0617669817866,327.81032242492347,1 45784U 20038BG  25331.33336806  .00187841  00000+0  88893-3 0  9994,2 45784  53.0256 204.2687 0004288 147.9730 125.7225 15.81946653  5987
STARLINK-1513,45786,53.0555,0.0001488,15.06408434,546.1552210444897,548.2161970827065,1 45786U 20038BJ  25330.34659476  .00001119  00000+0  93961-4 0  9993,2 45786  53.0555 300.5441 0001488  86.6575 273.4584 15.06408434301181
STARLINK-1522,46027,53.0532,9.3e-05,15.06394302,546.5849625026585,547.8730805826644,1 46027U 20055A   25331.12341447  .00003186  00000+0  23270-3 0  9995,2 46027  53.0532 227.0536 0000930  60.7785 299.3297 15.06394302293423
STARLINK-1523,46028,53.0543,0.0001383,15.06391559,546.2796492248908,548.1952077918158,1 46028U 20055B   25331.13816478 -.00003209  00000+0 -19666-3 0  9990,2 46028  53.0543 226.9922 0001383  99.4604 260.6542 15.06391559293442
STARLINK-1526,46029,53.0541,0.0001983,15.06391592,545.8640256380477,548.6106290962825,1 46029U 20055C   25330.99810064 -.00002314  00000+0 -13648-3 0  9999,2 46029  53.0541 227.6133 0001983 122.1649 237.9533 15.06391592293413
STARLINK-1555,46032,53.0523,0.0001706,15.06414855,545.9845731800297,548.3474865738226,1 46032U 20055F   25330.98334528  .00003329  00000+0  24222-3 0  9993,2 46032  53.0523 227.6830 0001706  97.3306 262.7877 15.06414855293412
STARLINK-1556,46033,53.0532,0.0001762,15.06394384,546.0085207741859,548.4490196716124,1 46033U 20055G   25330.89857844 -.00004084  00000+0 -25545-3 0  9995,2 46033  53.0532 228.0663 0001762  86.0114 274.1077 15.06394384293374
STARLINK-1557,46034,53.0538,0.0001164,15.06393607,546.4250387789607,548.0372644846602,1 46034U 20055H   25331.16764780  .00000676  00000+0  64266-4 0  9998,2 46034  53.0538 226.8532 0001164  93.8364 266.2758 15.06393607293411
STARLINK-1558,46035,53.0534,0.0001539,15.06394653,546.1621321064877,548.2937594367959,1 46035U 20055J   25330.97598636 -.00000737  00000+0 -30575-4 0  9998,2 46035  53.0534 227.7197 0001539  94.4848 265.6317 15.06394653293411
STARLINK-1560,46036,53.0539,0.000167,15.06387103,546.0945458574752,548.4076254780884,1 46036U 20055K   25331.09393203 -.00003131  00000+0 -19143-3 0  9994,2 46036  53.0539 227.1921 0001670  88.8661 271.2519 15.06387103293433
STARLINK-1567,46038,53.0526,0.000143,15.06396692,546.2313702067922,548.2120227939913,1 46038U 20055M   25331.10499024 -.00001334  00000+0 -70656-4 0  9996,2 46038  53.0526 227.1370 0001430 126.7258 233.3863 15.06396692293420
STARLINK-1569,46039,53.0527,0.0001691,15.06391143,546.067622469177,548.4097845321012,1 46039U 20055N   25331.11236953 -.00002425  00000+0 -14398-3 0  9990,2 46039  53.0527 227.1071 0001691  95.8293 264.2888 15.06391143293420
STARLINK-1582,46043,53.0529,0.0001523,15.06393016,546.1782291297341,548.2876968204564,1 46043U 20055S   25331.11973291 -.00002231  00000+0 -13093-3 0  9994,2 46043  53.0529 227.0714 0001523  98.9348 261.1813 15.06393016293424
STARLINK-1591,46045,53.0543,0.0001397,15.06390437,546.273392022943,548.2083425990695,1 46045U 20055U   25331.14553002 -.00000315  00000+0 -22612-5 0  9993,2 46045  53.0543 226.9565 0001397  92.0175 268.0974 15.06390437293413
STARLINK-1524,46047,53.0531,0.0001625,15.06397221,546.0947046614046,548.3454457108401,1 46047U 20055W   25331.09854547 -.00000260  00000+0  14483-5 0  9992,2 46047  53.0531 217.1664 0001625 124.5403 235.5739 15.06397221293565
STARLINK-1527,46048,53.0525,0.0001534,15.06392662,546.1716960239528,548.2963998614614,1 46048U 20055X   25331.09486601  .00006208  00000+0  43536-3 0  9991,2 46048  53.0525 217.1841 0001534  91.9272 268.1893 15.06392662293541
STARLINK-1540,46051,53.0538,0.0001656,15.0639288,546.0865384638655,548.380221133656,1 46051U 20055AA  25331.06167410 -.00005672  00000+0 -36225-3 0  9999,2 46051  53.0538 217.3351 0001656  86.0766 274.0412 15.06392880293573
STARLINK-1541,46052,53.0526,0.0001214,15.06396024,546.3830050381293,548.0644826267326,1 46052U 20055AB  25331.11328463 -.00000253  00000+0  19167-5 0  9990,2 46052  53.0526 217.1003 0001214  91.2234 268.8894 15.06396024293547
STARLINK-1543,46053,53.0526,0.0001361,15.06415701,546.2209036631175,548.1059704420823,1 46053U 20055AC  25331.11695145  .00010535  00000+0  72478-3 0  9990,2 46053  53.0526 217.0833 0001361  84.9837 275.1307 15.06415701293576
STARLINK-1548,46054,53.0532,0.0001225,15.06390783,546.3914482009814,548.0881655186631,1 46054U 20055AD  25331.12434004 -.00003020  00000+0 -18397-3 0  9990,2 46054  53.0532 217.0514 0001225  92.7417 267.3713 15.06390783293576
